DUPLEX                  
1 66906U 98067XS  26086.30327946  .00029604  00000+0  40157-3 0  9993
2 66906  51.6305 341.2773 0002793 193.7351 166.3565 15.57391828 17870
ISS OBJECT XT           
1 66907U 98067XT  26086.06187320  .00219962  00000+0  13800-2 0  9999
2 66907  51.6250 336.6305 0005739 192.2616 167.8244 15.75548676 17910
ISS OBJECT XU           
1 66908U 98067XU  26086.05835702  .00230149  00000+0  14272-2 0  9997
2 66908  51.6238 336.6028 0005927 191.8620 168.2241 15.75783311 17917
SILVERSAT               
1 66909U 98067XV  26086.39718512  .00285869  00000+0  13988-2 0  9996
2 66909  51.6218 333.6030 0006751 200.0610 160.0127 15.80899040 17987
ISS OBJECT XW           
1 66910U 98067XW  26086.38482501  .00170121  00000+0  11341-2 0  9998
2 66910  51.6240 335.0299 0006156 192.3775 167.7073 15.74302538 17967
ISS OBJECT XX           
1 66911U 98067XX  26086.84829310  .00439339  00000+0  15432-2 0  9997
2 66911  51.6197 329.8299 0008540 207.5646 152.4906 15.87462812 18069
ISS OBJECT XY           
1 66912U 98067XY  26086.39215784  .00098975  00000+0  89628-3 0  9998
2 66912  51.6270 337.3587 0004178 191.2645 168.8258 15.67254502 17925
KNACKSAT-2              
1 67683U 98067XZ  26086.42854591  .00036813  00000+0  57723-3 0  9997
2 67683  51.6325 343.6129 0009914 250.0621 109.9301 15.53279398  7542
CORAL                   
1 67684U 98067YA  26086.42856195  .00080155  00000+0  10695-2 0  9994
2 67684  51.6313 342.8639 0012536 239.6168 120.3585 15.57296527  7559
GXIBA-1                 
1 67685U 98067YB  26086.74060455  .00042071  00000+0  64447-3 0  9996
2 67685  51.6321 341.9470 0011854 248.0145 111.9586 15.53836913  7599
UITMSAT-2               
1 67686U 98067YC  26086.40526712  .00051452  00000+0  76170-3 0  9992
2 67686  51.6320 343.4609 0008937 217.8888 142.1474 15.54719469  7540
HMU-SAT2                
1 67687U 98067YD  26086.42372972  .00041264  00000+0  63963-3 0  9998
2 67687  51.6328 343.5840 0008492 221.2515 138.7834 15.53557567  7469
LEOPARD                 
1 67688U 98067YE  26086.09006899  .00052925  00000+0  79602-3 0  9997
2 67688  51.6328 345.1054 0008650 217.3181 142.7210 15.54275853  7410
CREW DRAGON 12          
1 67796U 26031A   26086.84204457  .00011920  00000+0  22728-3 0  9999
2 67796  51.6344 342.6225 0006212 240.1567 119.8804 15.48591753559086
PROGRESS-MS 33          
1 68319U 26058A   26086.84204457  .00011920  00000+0  22728-3 0  9990
2 68319  51.6344 342.6225 0006212 240.1567 119.8804 15.48591753   595
